OBJECT_NAME,OBJECT_ID,EPOCH,MEAN_MOTION,ECCENTRICITY,INCLINATION,RA_OF_ASC_NODE,ARG_OF_PERICENTER,MEAN_ANOMALY,EPHEMERIS_TYPE,CLASSIFICATION_TYPE,NORAD_CAT_ID,ELEMENT_SET_NO,REV_AT_EPOCH,BSTAR,MEAN_MOTION_DOT,MEAN_MOTION_DDOT
SKYSAT-C1,2016-040C,2026-06-17T14:34:17.849856,15.36307258,.0003439,96.9555,200.3043,57.2822,302.8754,0,U,41601,999,55793,.20341E-3,.7126E-4,0
LAPAN-A3,2016-040E,2026-06-17T23:23:07.244160,15.33109041,.00108106,97.1488,165.0941,23.2158,336.9571,0,U,41603,999,55493,.91109027E-4,.2843E-4,0
GAOFEN-3,2016-049A,2026-06-17T21:59:46.726656,14.42214995,.00014085,98.4004,176.6913,99.3948,260.7401,0,U,41727,999,51875,-.31094229E-4,-.146E-5,0
SKYSAT-C4,2016-058B,2026-06-17T20:22:40.180224,15.48604030,.00014295,96.9167,190.5936,135.2823,224.8545,0,U,41771,999,54557,.27060622E-3,.14363E-3,0
SKYSAT-C5,2016-058C,2026-06-17T15:00:53.633664,15.34475443,.00010506,97.0465,209.2466,311.8360,48.2794,0,U,41772,999,54381,.18463424E-3,.6091E-4,0
SKYSAT-C2,2016-058D,2026-06-17T12:27:15.721344,15.42076805,.0004647,97.0162,190.6014,70.1413,290.0335,0,U,41773,999,54510,.22086E-3,.9361E-4,0
SKYSAT-C3,2016-058E,2026-06-17T14:16:08.395104,15.52553563,.000148,96.8998,199.4253,95.4933,264.6490,0,U,41774,999,54617,.29922E-3,.18287E-3,0
ALSAT-1B,2016-059C,2026-06-17T22:04:32.009088,14.72274975,.00081159,97.7743,177.6519,217.4580,142.6063,0,U,41785,999,52068,.46414484E-4,.246E-5,0
PATHFINDER 1,2016-059E,2026-06-17T22:54:41.966496,14.67663897,.00278542,97.8166,168.1963,201.0695,158.9365,0,U,41787,999,51982,.83915905E-4,.433E-5,0
SCATSAT 1,2016-059H,2026-06-17T18:06:12.198240,14.79526505,.00534049,98.1191,232.5263,245.6154,113.9478,0,U,41790,999,10167,.11890312E-3,.853E-5,0
GOKTURK 1A,2016-073A,2026-06-17T23:57:22.940352,14.62774844,.00014528,98.1254,63.6607,76.4778,283.6586,0,U,41875,999,50894,.55046581E-4,.234E-5,0
RESOURCESAT-2A,2016-074A,2026-06-17T21:58:09.174144,14.21615568,.00033523,98.7529,242.4137,82.3648,277.7909,0,U,41877,999,49440,-.2586026E-4,-.101E-5,0
CARTOSAT-2D,2017-008A,2026-06-17T22:46:17.533920,15.19209494,.00038079,97.4106,228.2406,231.5221,128.5673,0,U,41948,999,51769,.10989386E-3,.2246E-4,0
SENTINEL-2B,2017-013A,2026-06-17T23:26:28.889664,14.30816468,.0001193,98.5695,243.7400,87.6805,272.4514,0,U,42063,999,48475,-.10237586E-4,-.7E-6,0
CARTOSAT-2E,2017-036C,2026-06-17T23:11:58.088256,15.19258220,.00024543,97.4274,228.7560,315.9975,44.1064,0,U,42767,999,49826,.12863107E-3,.2644E-4,0
FORMOSAT-5,2017-049A,2026-06-17T21:07:51.980736,14.50899106,.00126727,98.2255,244.1748,82.4479,277.8155,0,U,42920,999,46677,.42690567E-4,.125E-5,0
SENTINEL-5P,2017-064A,2026-06-17T20:04:12.427680,14.19519042,.00009729,98.7925,110.9629,86.1328,273.9959,0,U,42969,999,44965,.33723578E-4,.27E-6,0
SKYSAT-C11,2017-068A,2026-06-17T21:24:54.345888,15.57925859,.00006007,97.4359,317.7530,93.4661,266.6663,0,U,42987,999,48335,.33299362E-3,.24804E-3,0
SKYSAT-C10,2017-068B,2026-06-17T21:06:01.888992,15.34648300,.00011175,97.4513,305.7325,97.5319,262.6050,0,U,42988,999,48246,.22489626E-3,.747E-4,0
SKYSAT-C9,2017-068C,2026-06-17T21:18:49.508928,15.41576841,.00094027,97.4434,306.6830,130.7041,229.5024,0,U,42989,999,48286,.26892273E-3,.11235E-3,0
SKYSAT-C8,2017-068D,2026-06-17T20:23:16.112256,15.36987216,.00014642,97.4530,305.5048,95.6777,264.4634,0,U,42990,999,48241,.24621852E-3,.8826E-4,0
SKYSAT-C7,2017-068E,2026-06-17T20:14:06.595296,15.36937916,.00071926,97.4540,306.4879,104.7950,255.4091,0,U,42991,999,48247,.24740922E-3,.8861E-4,0
SKYSAT-C6,2017-068F,2026-06-17T20:44:27.567744,15.34220824,.00044751,97.4574,306.4764,135.7582,224.4020,0,U,42992,999,48242,.23731966E-3,.7783E-4,0
CARTOSAT-2F,2018-004A,2026-06-17T22:23:29.193792,15.19216573,.00006823,97.4785,228.5601,200.2138,159.9070,0,U,43111,999,46744,.90740348E-4,.1842E-4,0
GAOFEN-1 02,2018-031A,2026-06-17T23:25:43.824288,14.76456194,.00038148,98.0527,231.5011,31.8796,328.2644,0,U,43259,999,44281,.33291724E-4,.18E-5,0
GAOFEN-1 03,2018-031B,2026-06-17T22:54:15.291360,14.76470090,.0003729,98.0517,231.3378,77.5866,282.5761,0,U,43260,999,44280,.88340209E-4,.563E-5,0
GAOFEN-1 04,2018-031D,2026-06-17T22:19:17.036256,14.76433949,.0002195,98.0528,231.5043,75.5163,284.6289,0,U,43262,999,44279,.59965228E-4,.365E-5,0
SENTINEL-3B,2018-039A,2026-06-17T19:42:03.842784,14.26734886,.00007227,98.6248,236.3440,90.0659,270.0604,0,U,43437,999,42421,.52992362E-4,.85E-6,0
GAOFEN-5 01,2018-043A,2026-06-17T21:12:39.415392,14.60606020,.00030341,98.4569,140.4846,82.3249,277.8295,0,U,43461,999,43179,.6537663E-4,.269E-5,0
GAOFEN-6,2018-048A,2026-06-18T02:06:09.207648,14.76616871,.0012004,97.9444,231.8246,163.3227,196.8380,0,U,43484,999,43352,.24974E-3,.1695E-4,0
